GPS BIIR-2  (PRN 13)    
1 24876U 97035A   16172.09656769  .00000038  00000-0  00000+0 0  9996
2 24876  55.6521 241.3773 0040503 116.1256 244.3789  2.00562797138562
GPS BIIR-3  (PRN 11)    
1 25933U 99055A   16172.38424561 -.00000035  00000-0  00000+0 0  9998
2 25933  51.3920  93.5200 0162876  87.8513  47.0618  2.00563588122384
GPS BIIR-4  (PRN 20)    
1 26360U 00025A   16172.31117315  .00000067  00000-0  00000+0 0  9995
2 26360  53.0779 169.9835 0043403  78.6945 103.0899  2.00553683118073
GPS BIIR-5  (PRN 28)    
1 26407U 00040A   16172.34672250 -.00000058  00000-0  00000+0 0  9992
2 26407  56.6986 359.2485 0199324 267.4731 220.7308  2.00569550116759
GPS BIIR-6  (PRN 14)    
1 26605U 00071A   16172.32903617  .00000041  00000-0  00000+0 0  9999
2 26605  55.2218 239.2370 0089891 248.1153 147.1942  2.00522375114357
GPS BIIR-7  (PRN 18)    
1 26690U 01004A   16172.43992262  .00000069  00000-0  00000+0 0  9996
2 26690  53.0048 172.9448 0174517 252.6717 330.9485  2.00560764112753
GPS BIIR-8  (PRN 16)    
1 27663U 03005A   16171.96950230 -.00000059  00000-0  00000+0 0  9996
2 27663  56.7724 358.9811 0086490  21.0608 312.6276  2.00552279 98114
GPS BIIR-9  (PRN 21)    
1 27704U 03010A   16172.36106647 -.00000010  00000-0  00000+0 0  9995
2 27704  53.6655 113.2553 0236083 258.0368 325.6415  2.00572110 96915
GPS BIIR-10 (PRN 22)    
1 28129U 03058A   16172.29056935  .00000069  00000-0  00000+0 0  9998
2 28129  52.8849 172.9852 0078809 251.4755 107.6847  2.00548616 91617
GPS BIIR-11 (PRN 19)    
1 28190U 04009A   16172.23806605 -.00000048  00000-0  00000+0 0  9992
2 28190  55.7924  60.2741 0106042  44.7046 275.9413  2.00569983 89798
GPS BIIR-12 (PRN 23)    
1 28361U 04023A   16172.38233581  .00000046  00000-0  00000+0 0  9998
2 28361  54.1945 234.7164 0111543 214.1725 124.3292  2.00564903 87876
GPS BIIR-13 (PRN 02)    
1 28474U 04045A   16172.30314571 -.00000011  00000-0  00000+0 0  9991
2 28474  54.0539 112.5821 0159968 239.7137  43.7521  2.00574063 85241
GPS BIIRM-1 (PRN 17)    
1 28874U 05038A   16172.47632963 -.00000047  00000-0  00000+0 0  9993
2 28874  55.9579  57.4731 0111890 250.0656 267.8123  2.00560082 78649
GPS BIIRM-2 (PRN 31)    
1 29486U 06042A   16172.34791223 -.00000047  00000-0  00000+0 0  9990
2 29486  55.6327 296.7494 0082373 335.8987   7.6438  2.00553041 71350
GPS BIIRM-3 (PRN 12)    
1 29601U 06052A   16171.81551313 -.00000059  00000-0  00000-0 0  9999
2 29601  56.7434 357.9109 0059777  42.2074 318.2816  2.00559776 70217
GPS BIIRM-4 (PRN 15)    
1 32260U 07047A   16172.12971726  .00000049  00000-0  00000+0 0  9995
2 32260  53.3229 231.3937 0080483  26.2120 334.2886  2.00570470 63652
GPS BIIRM-5 (PRN 29)    
1 32384U 07062A   16172.36160216 -.00000047  00000-0  00000+0 0  9998
2 32384  56.0140  58.0361 0009597 337.4392 328.9312  2.00577831 62382
GPS BIIRM-6 (PRN 07)    
1 32711U 08012A   16172.53946621 -.00000046  00000-0  00000+0 0  9998
2 32711  55.3567 296.2000 0097336 208.2743 151.1989  2.00567308 60584
GPS BIIRM-7 (PRN 04)    
1 34661U 09014A   16172.44284419 -.00000060  00000-0  00000+0 0  9993
2 34661  56.3413 356.1987 0083259  50.2850 307.6893  2.00568398 53106
GPS BIIRM-8 (PRN 05)    
1 35752U 09043A   16171.83100858  .00000074  00000-0  00000-0 0  9998
2 35752  54.2273 174.2082 0045490  23.4722 208.5130  2.00546786 50162
GPS BIIF-1  (PRN 25)    
1 36585U 10022A   16172.38402258 -.00000061  00000-0  00000+0 0  9998
2 36585  56.0676 354.9557 0054677  43.2724 338.0099  2.00556557 44407
GPS BIIF-2  (PRN 01)    
1 37753U 11036A   16172.53874762 -.00000004  00000-0  00000+0 0  9999
2 37753  55.2699 115.2100 0054877  25.2005 195.2815  2.00567108 36085
GPS BIIF-3  (PRN 24)    
1 38833U 12053A   16172.22023647 -.00000047  00000-0  00000+0 0  9990
2 38833  54.3869 293.4869 0043425  21.0450 339.1369  2.00570559 27166
GPS BIIF-4  (PRN 27)    
1 39166U 13023A   16172.08103916 -.00000050  00000-0  00000+0 0  9994
2 39166  55.6681  54.6220 0036699  14.1305 346.0292  2.00567491 22682
GPS BIIF-5  (PRN 30)    
1 39533U 14008A   16172.07748874 -.00000053  00000-0  00000+0 0  9996
2 39533  54.5427 298.7286 0021957 180.5388 179.4577  2.00573071 17048
GPS BIIF-6  (PRN 06)    
1 39741U 14026A   16172.35812542 -.00000006  00000-0  00000+0 0  9990
2 39741  55.2598 114.7343 0006203 278.1745  81.7215  2.00559007 15332
GPS BIIF-7  (PRN 09)    
1 40105U 14045A   16171.94823443  .00000047  00000-0  00000+0 0  9997
2 40105  54.7142 234.4460 0004050 158.2387 201.8715  2.00576826 13779
GPS BIIF-8  (PRN 03)    
1 40294U 14068A   16172.32362361  .00000075  00000-0  00000+0 0  9992
2 40294  54.9686 174.8882 0004482 267.7855  92.1863  2.00562635 12006
GPS BIIF-9  (PRN 26)    
1 40534U 15013A   16171.96689489 -.00000064  00000-0  00000+0 0  9991
2 40534  55.0342 354.4347 0009958 358.1212   1.8982  2.00552001  9068
GPS BIIF-10  (PRN 08)   
1 40730U 15033A   16172.12067257 -.00000051  00000-0  00000+0 0  9999
2 40730  55.2046  54.4551 0019216 295.6870  64.1712  2.00559905  6820
GPS BIIF-11  (PRN 10)   
1 41019U 15062A   16171.17666166  .00000079  00000-0  00000+0 0  9999
2 41019  54.9813 174.7044 0016426 212.3491 147.5793  2.00562325  4628
GPS BIIF-12  (PRN 32)   
1 41328U 16007A   16171.76345066  .00000047  00000-0  00000+0 0  9995
2 41328  54.9775 234.5393 0006399 243.4835 116.5431  2.00570420  2702
